{
    "links": {
        "self": "http://www.neowsapp.com/rest/v1/neo/54017042?api_key=iIulBulltgU6a56xZRHN4H3l9WmuAYTsLGpBGhQ2"
    },
    "id": "54017042",
    "neo_reference_id": "54017042",
    "name": "(2020 JL2)",
    "designation": "2020 JL2",
    "nasa_jpl_url": "http://ssd.jpl.nasa.gov/sbdb.cgi?sstr=54017042",
    "absolute_magnitude_h": 23.623,
    "estimated_diameter": {
        "kilometers": {
            "estimated_diameter_min": 0.0501135278,
            "estimated_diameter_max": 0.1120572548
        },
        "meters": {
            "estimated_diameter_min": 50.1135278143,
            "estimated_diameter_max": 112.057254785
        },
        "miles": {
            "estimated_diameter_min": 0.0311390929,
            "estimated_diameter_max": 0.0696291285
        },
        "feet": {
            "estimated_diameter_min": 164.4144665941,
            "estimated_diameter_max": 367.6419237888
        }
    },
    "is_potentially_hazardous_asteroid": false,
    "close_approach_data": [
        {
            "close_approach_date": "2020-06-13",
            "close_approach_date_full": "2020-Jun-13 09:55",
            "epoch_date_close_approach": 1592042100000,
            "relative_velocity": {
                "kilometers_per_second": "8.9675340747",
                "kilometers_per_hour": "32283.1226688672",
                "miles_per_hour": "20059.4769716636"
            },
            "miss_distance": {
                "astronomical": "0.1183832868",
                "lunar": "46.0510985652",
                "kilometers": "17709887.548879116",
                "miles": "11004413.8414231608"
            },
            "orbiting_body": "Earth"
        },
        {
            "close_approach_date": "2020-09-26",
            "close_approach_date_full": "2020-Sep-26 02:02",
            "epoch_date_close_approach": 1601085720000,
            "relative_velocity": {
                "kilometers_per_second": "12.4540593087",
                "kilometers_per_hour": "44834.6135114777",
                "miles_per_hour": "27858.485267729"
            },
            "miss_distance": {
                "astronomical": "0.0168254601",
                "lunar": "6.5451039789",
                "kilometers": "2517052.992729987",
                "miles": "1564024.2049163406"
            },
            "orbiting_body": "Mars"
        }
    ],
    "orbital_data": {
        "orbit_id": "6",
        "orbit_determination_date": "2020-07-03 09:39:14",
        "first_observation_date": "2020-05-15",
        "last_observation_date": "2020-06-16",
        "data_arc_in_days": 32,
        "observations_used": 49,
        "orbit_uncertainty": "7",
        "minimum_orbit_intersection": ".078452",
        "jupiter_tisserand_invariant": "3.486",
        "epoch_osculation": "2459000.5",
        "eccentricity": ".5414448593197005",
        "semi_major_axis": "2.159375950185312",
        "inclination": "6.626151585754466",
        "ascending_node_longitude": "177.5905261809993",
        "orbital_period": "1159.019698187715",
        "perihelion_distance": ".9901929426188808",
        "perihelion_argument": "111.2654361482685",
        "aphelion_distance": "3.328558957751742",
        "perihelion_time": "2459035.135690665836",
        "mean_anomaly": "349.2419010141089",
        "mean_motion": ".3106073180317029",
        "equinox": "J2000",
        "orbit_class": {
            "orbit_class_type": "APO",
            "orbit_class_description": "Near-Earth asteroid orbits which cross the Earth’s orbit similar to that of 1862 Apollo",
            "orbit_class_range": "a (semi-major axis) > 1.0 AU; q (perihelion) < 1.017 AU"
        }
    },
    "is_sentry_object": false
}